SAUDISAT 1C             
1 27607U 02058C   23269.96637633  .00002612  00000+0  37339-3 0  9990
2 27607  64.5559 312.8247 0057977 203.1250 156.7244 14.77666947117479
SAUDISAT 2              
1 28371U 04025F   23270.37023699  .00000787  00000+0  19283-3 0  9992
2 28371  98.4452 234.9880 0026580 108.5142 251.8946 14.55051622 21189
SAUDISAT 3              
1 31118U 07012B   23270.40248293  .00000751  00000+0  13372-3 0  9991
2 31118  98.0210 212.8308 0015715 144.9848 215.2395 14.69805138881736
PISAT                   
1 41784U 16059B   23270.04292832  .00001775  00000+0  33762-3 0  9992
2 41784  97.8630 298.9458 0032265 130.5000 229.9023 14.64954397373979
FLYING LAPTOP           
1 42831U 17042G   23270.07717833  .00003334  00000+0  32169-3 0  9998
2 42831  97.3871 101.6877 0011921 241.5354 118.4667 14.93452132337698
SALSAT                  
1 46495U 20068K   23270.09228828  .00008709  00000+0  55619-3 0  9999
2 46495  97.7777 219.2892 0016601 129.1772 231.0934 15.08791725164435
